start=new Date('2022-03-28T00:00:00.000Z').valueOf();
sats=[{"EPHEMERIS_TYPE":"0","APOAPSIS":"540.965","SITE":"AFETR","MEAN_MOTION_DDOT":"0.0000000000000","SEMIMAJOR_AXIS":"6917.818","TLE_LINE1":"1 49432U 21104AA  22086.91668981  .00003661  00000-0  24785-3 0  9991","TLE_LINE2":"2 49432  53.2161 215.9878 0001854  41.7809 278.2087 15.08860462  3567","MEAN_ANOMALY":"278.2087","DECAY_DATE":null,"BSTAR":"0.00024785000000","OBJECT_TYPE":"PAYLOAD","LAUNCH_DATE":"2021-11-13","FILE":"3377053","ARG_OF_PERICENTER":"41.7809","OBJECT_ID":"2021-104AA","TIME_SYSTEM":"UTC","NORAD_CAT_ID":"49432","EPOCH":"2022-03-27T22:00:01.999584","RCS_SIZE":"LARGE","MEAN_ELEMENT_THEORY":"SGP4","PERIOD":"95.436","ELEMENT_SET_NO":"999","MEAN_MOTION_DOT":"0.00003661","OBJECT_NAME":"STARLINK-3158","REV_AT_EPOCH":"356","RA_OF_ASC_NODE":"215.9878","PERIAPSIS":"538.400","ECCENTRICITY":"0.00018540","REF_FRAME":"TEME","INCLINATION":"53.2161","GP_ID":"199865059","MEAN_MOTION":"15.08860462","COUNTRY_CODE":"US","CENTER_NAME":"EARTH","CLASSIFICATION_TYPE":"U"},{"SEMIMAJOR_AXIS":"6917.862","MEAN_ANOMALY":"268.7780","TLE_LINE2":"2 49433  53.2143 205.9807 0001800  51.3703 268.7780 15.08845866  3565","TLE_LINE1":"1 49433U 21104AB  22086.91668981 -.00007641  00000-0 -46240-3 0  9996","DECAY_DATE":null,"BSTAR":"-0.00046240000000","MEAN_MOTION_DDOT":"0.0000000000000","SITE":"AFETR","APOAPSIS":"540.973","EPHEMERIS_TYPE":"0","TIME_SYSTEM":"UTC","NORAD_CAT_ID":"49433","RCS_SIZE":"LARGE","EPOCH":"2022-03-27T22:00:01.999584","OBJECT_ID":"2021-104AB","FILE":"3377053","ARG_OF_PERICENTER":"51.3703","OBJECT_TYPE":"PAYLOAD","LAUNCH_DATE":"2021-11-13","COUNTRY_CODE":"US","CENTER_NAME":"EARTH","INCLINATION":"53.2143","GP_ID":"199865296","MEAN_MOTION":"15.08845866","OBJECT_NAME":"STARLINK-3079","REV_AT_EPOCH":"356","REF_FRAME":"TEME","PERIAPSIS":"538.482","RA_OF_ASC_NODE":"205.9807","ECCENTRICITY":"0.00018000","MEAN_ELEMENT_THEORY":"SGP4","PERIOD":"95.437","ELEMENT_SET_NO":"999","MEAN_MOTION_DOT":"-0.00007641","CLASSIFICATION_TYPE":"U"},{"CENTER_NAME":"EARTH","COUNTRY_CODE":"US","INCLINATION":"53.2171","MEAN_MOTION":"15.08829747","GP_ID":"199864058","PERIAPSIS":"538.359","RA_OF_ASC_NODE":"225.9781","ECCENTRICITY":"0.00020490","REF_FRAME":"TEME","OBJECT_NAME":"STARLINK-3134","REV_AT_EPOCH":"356","ELEMENT_SET_NO":"999","MEAN_ELEMENT_THEORY":"SGP4","PERIOD":"95.438","MEAN_MOTION_DOT":"0.00023836","CLASSIFICATION_TYPE":"U","TLE_LINE2":"2 49434  53.2171 225.9781 0002049  39.7784 110.4428 15.08829747  3567","MEAN_ANOMALY":"110.4428","TLE_LINE1":"1 49434U 21104AC  22086.91668981  .00023836  00000-0  15111-2 0  9991","SEMIMAJOR_AXIS":"6917.912","BSTAR":"0.00151110000000","DECAY_DATE":null,"MEAN_MOTION_DDOT":"0.0000000000000","SITE":"AFETR","APOAPSIS":"541.194","EPHEMERIS_TYPE":"0","NORAD_CAT_ID":"49434","TIME_SYSTEM":"UTC","RCS_SIZE":"LARGE","EPOCH":"2022-03-27T22:00:01.999584","OBJECT_ID":"2021-104AC","ARG_OF_PERICENTER":"39.7784","FILE":"3377053","OBJECT_TYPE":"PAYLOAD","LAUNCH_DATE":"2021-11-13"},{"CENTER_NAME":"EARTH","COUNTRY_CODE":"US","INCLINATION":"53.2172","MEAN_MOTION":"15.15277420","GP_ID":"199864308","ECCENTRICITY":"0.00019100","PERIAPSIS":"518.821","RA_OF_ASC_NODE":"206.2328","REF_FRAME":"TEME","OBJECT_NAME":"STARLINK-3117","REV_AT_EPOCH":"359","ELEMENT_SET_NO":"999","PERIOD":"95.032","MEAN_ELEMENT_THEORY":"SGP4","MEAN_MOTION_DOT":"-0.00194907","CLASSIFICATION_TYPE":"U","TLE_LINE2":"2 49435  53.2172 206.2328 0001910  40.5066 136.7126 15.15277420  3599","TLE_LINE1":"1 49435U 21104AD  22086.91668981 -.00194907  00000-0 -10498-1 0  9994","MEAN_ANOMALY":"136.7126","SEMIMAJOR_AXIS":"6898.273","BSTAR":"-0.01049800000000","DECAY_DATE":null,"MEAN_MOTION_DDOT":"0.0000000000000","SITE":"AFETR","APOAPSIS":"521.456","EPHEMERIS_TYPE":"0","NORAD_CAT_ID":"49435","TIME_SYSTEM":"UTC","RCS_SIZE":"LARGE","EPOCH":"2022-03-27T22:00:01.999584","OBJECT_ID":"2021-104AD","FILE":"3377053","ARG_OF_PERICENTER":"40.5066","OBJECT_TYPE":"PAYLOAD","LAUNCH_DATE":"2021-11-13"},{"CLASSIFICATION_TYPE":"U","ELEMENT_SET_NO":"999","MEAN_ELEMENT_THEORY":"SGP4","PERIOD":"95.437","MEAN_MOTION_DOT":"-0.00020328","RA_OF_ASC_NODE":"205.9797","PERIAPSIS":"538.421","REF_FRAME":"TEME","ECCENTRICITY":"0.00018600","REV_AT_EPOCH":"356","OBJECT_NAME":"STARLINK-3049","INCLINATION":"53.2138","MEAN_MOTION":"15.08852208","GP_ID":"199865559","CENTER_NAME":"EARTH","COUNTRY_CODE":"US","OBJECT_TYPE":"PAYLOAD","LAUNCH_DATE":"2021-11-13","ARG_OF_PERICENTER":"39.8152","FILE":"3377053","OBJECT_ID":"2021-104AE","NORAD_CAT_ID":"49436","TIME_SYSTEM":"UTC","RCS_SIZE":"LARGE","EPOCH":"2022-03-27T22:00:01.999584","EPHEMERIS_TYPE":"0","APOAPSIS":"540.995","SITE":"AFETR","MEAN_MOTION_DDOT":"0.0000000000000","MEAN_ANOMALY":"260.4166","TLE_LINE2":"2 49436  53.2138 205.9797 0001860  39.8152 260.4166 15.08852208  3560","TLE_LINE1":"1 49436U 21104AE  22086.91668981 -.00020328  00000-0 -12623-2 0  9993","SEMIMAJOR_AXIS":"6917.843","BSTAR":"-0.00126230000000","DECAY_DATE":null},{"EPHEMERIS_TYPE":"0","APOAPSIS":"541.068","SITE":"AFETR","MEAN_MOTION_DDOT":"0.0000000000000","BSTAR":"-0.00046336000000","DECAY_DATE":null,"TLE_LINE1":"1 49437U 21104AF  22086.91668981 -.00007654  00000-0 -46336-3 0  9990","TLE_LINE2":"2 49437  53.2154 205.9827 0001898  39.9443 300.2429 15.08836959  3568","MEAN_ANOMALY":"300.2429","SEMIMAJOR_AXIS":"6917.890","LAUNCH_DATE":"2021-11-13","OBJECT_TYPE":"PAYLOAD","FILE":"3377053","ARG_OF_PERICENTER":"39.9443","OBJECT_ID":"2021-104AF","RCS_SIZE":"LARGE","EPOCH":"2022-03-27T22:00:01.999584","NORAD_CAT_ID":"49437","TIME_SYSTEM":"UTC","MEAN_MOTION_DOT":"-0.00007654","ELEMENT_SET_NO":"999","MEAN_ELEMENT_THEORY":"SGP4","PERIOD":"95.438","REF_FRAME":"TEME","PERIAPSIS":"538.442","RA_OF_ASC_NODE":"205.9827","ECCENTRICITY":"0.00018980","OBJECT_NAME":"STARLINK-3130","REV_AT_EPOCH":"356","MEAN_MOTION":"15.08836959","GP_ID":"199865796","INCLINATION":"53.2154","CENTER_NAME":"EARTH","COUNTRY_CODE":"US","CLASSIFICATION_TYPE":"U"},{"MEAN_ANOMALY":"315.2162","TLE_LINE2":"2 49438  53.2161 205.9836 0001936  44.9851 315.2162 15.08836538  3573","TLE_LINE1":"1 49438U 21104AG  22086.91668981 -.00007648  00000-0 -46298-3 0  9991","SEMIMAJOR_AXIS":"6917.891","BSTAR":"-0.00046298000000","DECAY_DATE":null,"MEAN_MOTION_DDOT":"0.0000000000000","SITE":"AFETR","APOAPSIS":"541.095","EPHEMERIS_TYPE":"0","NORAD_CAT_ID":"49438","TIME_SYSTEM":"UTC","RCS_SIZE":"LARGE","EPOCH":"2022-03-27T22:00:01.999584","OBJECT_ID":"2021-104AG","ARG_OF_PERICENTER":"44.9851","FILE":"3377053","OBJECT_TYPE":"PAYLOAD","LAUNCH_DATE":"2021-11-13","CENTER_NAME":"EARTH","COUNTRY_CODE":"US","INCLINATION":"53.2161","MEAN_MOTION":"15.08836538","GP_ID":"199864558","RA_OF_ASC_NODE":"205.9836","PERIAPSIS":"538.417","REF_FRAME":"TEME","ECCENTRICITY":"0.00019360","OBJECT_NAME":"STARLINK-3044","REV_AT_EPOCH":"357","ELEMENT_SET_NO":"999","MEAN_ELEMENT_THEORY":"SGP4","PERIOD":"95.438","MEAN_MOTION_DOT":"-0.00007648","CLASSIFICATION_TYPE":"U"},{"RA_OF_ASC_NODE":"205.9670","PERIAPSIS":"538.406","ECCENTRICITY":"0.00019300","REF_FRAME":"TEME","REV_AT_EPOCH":"357","OBJECT_NAME":"STARLINK-3108","MEAN_MOTION_DOT":"-0.00004659","ELEMENT_SET_NO":"999","PERIOD":"95.437","MEAN_ELEMENT_THEORY":"SGP4","COUNTRY_CODE":"US","CENTER_NAME":"EARTH","MEAN_MOTION":"15.08841530","GP_ID":"199864808","INCLINATION":"53.2169","CLASSIFICATION_TYPE":"U","APOAPSIS":"541.076","SITE":"AFETR","EPHEMERIS_TYPE":"0","BSTAR":"-0.00027477000000","DECAY_DATE":null,"TLE_LINE2":"2 49439  53.2169 205.9670 0001930  34.5526  65.6876 15.08841530  3572","TLE_LINE1":"1 49439U 21104AH  22086.91668981 -.00004659  00000-0 -27477-3 0  9999","MEAN_ANOMALY":"65.6876","SEMIMAJOR_AXIS":"6917.876","MEAN_MOTION_DDOT":"0.0000000000000","FILE":"3377053","ARG_OF_PERICENTER":"34.5526","LAUNCH_DATE":"2021-11-13","OBJECT_TYPE":"PAYLOAD","EPOCH":"2022-03-27T22:00:01.999584","RCS_SIZE":"LARGE","NORAD_CAT_ID":"49439","TIME_SYSTEM":"UTC","OBJECT_ID":"2021-104AH"},{"CLASSIFICATION_TYPE":"U","MEAN_MOTION_DOT":"-0.00006757","ELEMENT_SET_NO":"999","PERIOD":"95.437","MEAN_ELEMENT_THEORY":"SGP4","RA_OF_ASC_NODE":"205.9847","PERIAPSIS":"538.202","ECCENTRICITY":"0.00022220","REF_FRAME":"TEME","REV_AT_EPOCH":"357","OBJECT_NAME":"STARLINK-3105","MEAN_MOTION":"15.08842100","GP_ID":"199865060","INCLINATION":"53.2170","CENTER_NAME":"EARTH","COUNTRY_CODE":"US","LAUNCH_DATE":"2021-11-13","OBJECT_TYPE":"PAYLOAD","ARG_OF_PERICENTER":"39.0827","FILE":"3377053","OBJECT_ID":"2021-104AJ","EPOCH":"2022-03-27T22:00:01.999584","RCS_SIZE":"LARGE","NORAD_CAT_ID":"49440","TIME_SYSTEM":"UTC","EPHEMERIS_TYPE":"0","APOAPSIS":"541.276","SITE":"AFETR","MEAN_MOTION_DDOT":"0.0000000000000","BSTAR":"-0.00040679000000","DECAY_DATE":null,"MEAN_ANOMALY":"341.1171","TLE_LINE2":"2 49440  53.2170 205.9847 0002222  39.0827 341.1171 15.08842100  3575","TLE_LINE1":"1 49440U 21104AJ  22086.91668981 -.00006757  00000-0 -40679-3 0  9991","SEMIMAJOR_AXIS":"6917.874"},{"CLASSIFICATION_TYPE":"U","MEAN_MOTION":"15.08847695","GP_ID":"199865297","INCLINATION":"53.2167","CENTER_NAME":"EARTH","COUNTRY_CODE":"US","MEAN_MOTION_DOT":"-0.00001523","ELEMENT_SET_NO":"999","PERIOD":"95.437","MEAN_ELEMENT_THEORY":"SGP4","PERIAPSIS":"538.398","RA_OF_ASC_NODE":"205.9657","REF_FRAME":"TEME","ECCENTRICITY":"0.00019140","OBJECT_NAME":"STARLINK-3128","REV_AT_EPOCH":"357","OBJECT_ID":"2021-104AK","RCS_SIZE":"LARGE","EPOCH":"2022-03-27T22:00:01.999584","NORAD_CAT_ID":"49441","TIME_SYSTEM":"UTC","LAUNCH_DATE":"2021-11-13","OBJECT_TYPE":"PAYLOAD","ARG_OF_PERICENTER":"33.0701","FILE":"3377053","MEAN_MOTION_DDOT":"0.0000000000000","BSTAR":"-0.00007755500000","DECAY_DATE":null,"TLE_LINE2":"2 49441  53.2167 205.9657 0001914  33.0701  87.0896 15.08847695  3577","MEAN_ANOMALY":"87.0896","TLE_LINE1":"1 49441U 21104AK  22086.91668981 -.00001523  00000-0 -77555-4 0  9992","SEMIMAJOR_AXIS":"6917.857","EPHEMERIS_TYPE":"0","SITE":"AFETR","APOAPSIS":"541.046"}];
